CCSDS_OMM_VERS = 2.0
CREATION_DATE  = 
ORIGINATOR     = 

OBJECT_NAME    = STARLINK-36335
OBJECT_ID      = 2026-040A
CENTER_NAME    = EARTH
REF_FRAME      = TEME
TIME_SYSTEM    = UTC
MEAN_ELEMENT_THEORY = SGP/SGP4

EPOCH          = 2026-03-21T04:00:00.999936
MEAN_MOTION    = 15.75250465
ECCENTRICITY   = .00014441
INCLINATION    = 97.2827
RA_OF_ASC_NODE = 29.1719
ARG_OF_PERICENTER = 100.7427
MEAN_ANOMALY   = 189.9323

EPHEMERIS_TYPE = 0
CLASSIFICATION_TYPE = U
NORAD_CAT_ID   = 68015
ELEMENT_SET_NO = 999
REV_AT_EPOCH   = 422
BSTAR          = -.90121884E-3
MEAN_MOTION_DOT = -.132834E-2
MEAN_MOTION_DDOT = 0

CCSDS_OMM_VERS = 2.0
CREATION_DATE  = 
ORIGINATOR     = 

OBJECT_NAME    = STARLINK-36923
OBJECT_ID      = 2026-040B
CENTER_NAME    = EARTH
REF_FRAME      = TEME
TIME_SYSTEM    = UTC
MEAN_ELEMENT_THEORY = SGP/SGP4

EPOCH          = 2026-03-21T04:00:00.999936
MEAN_MOTION    = 15.75233031
ECCENTRICITY   = .00015486
INCLINATION    = 97.2838
RA_OF_ASC_NODE = 29.1756
ARG_OF_PERICENTER = 95.4074
MEAN_ANOMALY   = 201.2972

EPHEMERIS_TYPE = 0
CLASSIFICATION_TYPE = U
NORAD_CAT_ID   = 68016
ELEMENT_SET_NO = 999
REV_AT_EPOCH   = 427
BSTAR          = -.82299889E-3
MEAN_MOTION_DOT = -.121388E-2
MEAN_MOTION_DDOT = 0

CCSDS_OMM_VERS = 2.0
CREATION_DATE  = 
ORIGINATOR     = 

OBJECT_NAME    = STARLINK-36568
OBJECT_ID      = 2026-040C
CENTER_NAME    = EARTH
REF_FRAME      = TEME
TIME_SYSTEM    = UTC
MEAN_ELEMENT_THEORY = SGP/SGP4

EPOCH          = 2026-03-21T04:00:00.999936
MEAN_MOTION    = 15.75171452
ECCENTRICITY   = .00012929
INCLINATION    = 97.2844
RA_OF_ASC_NODE = 29.1775
ARG_OF_PERICENTER = 94.0019
MEAN_ANOMALY   = 206.7152

EPHEMERIS_TYPE = 0
CLASSIFICATION_TYPE = U
NORAD_CAT_ID   = 68017
ELEMENT_SET_NO = 999
REV_AT_EPOCH   = 427
BSTAR          = .30373372E-3
MEAN_MOTION_DOT = .45378E-3
MEAN_MOTION_DDOT = 0

CCSDS_OMM_VERS = 2.0
CREATION_DATE  = 
ORIGINATOR     = 

OBJECT_NAME    = STARLINK-36930
OBJECT_ID      = 2026-040D
CENTER_NAME    = EARTH
REF_FRAME      = TEME
TIME_SYSTEM    = UTC
MEAN_ELEMENT_THEORY = SGP/SGP4

EPOCH          = 2026-03-21T04:00:00.999936
MEAN_MOTION    = 15.75177001
ECCENTRICITY   = .0001609
INCLINATION    = 97.2842
RA_OF_ASC_NODE = 29.1741
ARG_OF_PERICENTER = 102.2597
MEAN_ANOMALY   = 190.4486

EPHEMERIS_TYPE = 0
CLASSIFICATION_TYPE = U
NORAD_CAT_ID   = 68018
ELEMENT_SET_NO = 999
REV_AT_EPOCH   = 427
BSTAR          = .18115807E-3
MEAN_MOTION_DOT = .26962E-3
MEAN_MOTION_DDOT = 0

CCSDS_OMM_VERS = 2.0
CREATION_DATE  = 
ORIGINATOR     = 

OBJECT_NAME    = STARLINK-36921
OBJECT_ID      = 2026-040E
CENTER_NAME    = EARTH
REF_FRAME      = TEME
TIME_SYSTEM    = UTC
MEAN_ELEMENT_THEORY = SGP/SGP4

EPOCH          = 2026-03-21T04:00:00.999936
MEAN_MOTION    = 15.75149502
ECCENTRICITY   = .00014795
INCLINATION    = 97.2838
RA_OF_ASC_NODE = 29.1866
ARG_OF_PERICENTER = 95.3154
MEAN_ANOMALY   = 219.4194

EPHEMERIS_TYPE = 0
CLASSIFICATION_TYPE = U
NORAD_CAT_ID   = 68019
ELEMENT_SET_NO = 999
REV_AT_EPOCH   = 427
BSTAR          = .11882818E-4
MEAN_MOTION_DOT = .164E-4
MEAN_MOTION_DDOT = 0

CCSDS_OMM_VERS = 2.0
CREATION_DATE  = 
ORIGINATOR     = 

OBJECT_NAME    = STARLINK-36928
OBJECT_ID      = 2026-040F
CENTER_NAME    = EARTH
REF_FRAME      = TEME
TIME_SYSTEM    = UTC
MEAN_ELEMENT_THEORY = SGP/SGP4

EPOCH          = 2026-03-21T04:00:00.999936
MEAN_MOTION    = 15.75208495
ECCENTRICITY   = .0000963
INCLINATION    = 97.2842
RA_OF_ASC_NODE = 29.1826
ARG_OF_PERICENTER = 122.5557
MEAN_ANOMALY   = 186.1015

EPHEMERIS_TYPE = 0
CLASSIFICATION_TYPE = U
NORAD_CAT_ID   = 68020
ELEMENT_SET_NO = 999
REV_AT_EPOCH   = 427
BSTAR          = .35483063E-3
MEAN_MOTION_DOT = .53167E-3
MEAN_MOTION_DDOT = 0

CCSDS_OMM_VERS = 2.0
CREATION_DATE  = 
ORIGINATOR     = 

OBJECT_NAME    = STARLINK-36858
OBJECT_ID      = 2026-040G
CENTER_NAME    = EARTH
REF_FRAME      = TEME
TIME_SYSTEM    = UTC
MEAN_ELEMENT_THEORY = SGP/SGP4

EPOCH          = 2026-03-21T13:18:44.154144
MEAN_MOTION    = 15.80826224
ECCENTRICITY   = .0001532
INCLINATION    = 97.2794
RA_OF_ASC_NODE = 29.7491
ARG_OF_PERICENTER = 111.2783
MEAN_ANOMALY   = 248.8649

EPHEMERIS_TYPE = 0
CLASSIFICATION_TYPE = U
NORAD_CAT_ID   = 68021
ELEMENT_SET_NO = 999
REV_AT_EPOCH   = 323
BSTAR          = .28136E-3
MEAN_MOTION_DOT = .54113E-3
MEAN_MOTION_DDOT = 0

CCSDS_OMM_VERS = 2.0
CREATION_DATE  = 
ORIGINATOR     = 

OBJECT_NAME    = STARLINK-36916
OBJECT_ID      = 2026-040H
CENTER_NAME    = EARTH
REF_FRAME      = TEME
TIME_SYSTEM    = UTC
MEAN_ELEMENT_THEORY = SGP/SGP4

EPOCH          = 2026-03-21T04:00:00.999936
MEAN_MOTION    = 15.75152286
ECCENTRICITY   = .00011675
INCLINATION    = 97.2843
RA_OF_ASC_NODE = 29.1859
ARG_OF_PERICENTER = 118.6083
MEAN_ANOMALY   = 202.1110

EPHEMERIS_TYPE = 0
CLASSIFICATION_TYPE = U
NORAD_CAT_ID   = 68022
ELEMENT_SET_NO = 999
REV_AT_EPOCH   = 427
BSTAR          = .36074574E-3
MEAN_MOTION_DOT = .53929E-3
MEAN_MOTION_DDOT = 0

CCSDS_OMM_VERS = 2.0
CREATION_DATE  = 
ORIGINATOR     = 

OBJECT_NAME    = STARLINK-36871
OBJECT_ID      = 2026-040J
CENTER_NAME    = EARTH
REF_FRAME      = TEME
TIME_SYSTEM    = UTC
MEAN_ELEMENT_THEORY = SGP/SGP4

EPOCH          = 2026-03-21T04:00:00.999936
MEAN_MOTION    = 15.75184075
ECCENTRICITY   = .00016194
INCLINATION    = 97.2843
RA_OF_ASC_NODE = 29.1863
ARG_OF_PERICENTER = 99.4744
MEAN_ANOMALY   = 223.2270

EPHEMERIS_TYPE = 0
CLASSIFICATION_TYPE = U
NORAD_CAT_ID   = 68023
ELEMENT_SET_NO = 999
REV_AT_EPOCH   = 427
BSTAR          = .98000141E-4
MEAN_MOTION_DOT = .14509E-3
MEAN_MOTION_DDOT = 0

CCSDS_OMM_VERS = 2.0
CREATION_DATE  = 
ORIGINATOR     = 

OBJECT_NAME    = STARLINK-36891
OBJECT_ID      = 2026-040K
CENTER_NAME    = EARTH
REF_FRAME      = TEME
TIME_SYSTEM    = UTC
MEAN_ELEMENT_THEORY = SGP/SGP4

EPOCH          = 2026-03-21T04:00:00.999936
MEAN_MOTION    = 15.75266389
ECCENTRICITY   = .00016942
INCLINATION    = 97.2834
RA_OF_ASC_NODE = 29.1881
ARG_OF_PERICENTER = 88.2447
MEAN_ANOMALY   = 238.4438

EPHEMERIS_TYPE = 0
CLASSIFICATION_TYPE = U
NORAD_CAT_ID   = 68024
ELEMENT_SET_NO = 999
REV_AT_EPOCH   = 427
BSTAR          = -.10391539E-2
MEAN_MOTION_DOT = -.152901E-2
MEAN_MOTION_DDOT = 0

CCSDS_OMM_VERS = 2.0
CREATION_DATE  = 
ORIGINATOR     = 

OBJECT_NAME    = STARLINK-36378
OBJECT_ID      = 2026-040L
CENTER_NAME    = EARTH
REF_FRAME      = TEME
TIME_SYSTEM    = UTC
MEAN_ELEMENT_THEORY = SGP/SGP4

EPOCH          = 2026-03-21T04:00:00.999936
MEAN_MOTION    = 15.75233235
ECCENTRICITY   = .00008721
INCLINATION    = 97.2846
RA_OF_ASC_NODE = 29.1952
ARG_OF_PERICENTER = 121.8786
MEAN_ANOMALY   = 212.7780

EPHEMERIS_TYPE = 0
CLASSIFICATION_TYPE = U
NORAD_CAT_ID   = 68025
ELEMENT_SET_NO = 999
REV_AT_EPOCH   = 422
BSTAR          = -.43269382E-4
MEAN_MOTION_DOT = -.659E-4
MEAN_MOTION_DDOT = 0

CCSDS_OMM_VERS = 2.0
CREATION_DATE  = 
ORIGINATOR     = 

OBJECT_NAME    = STARLINK-36884
OBJECT_ID      = 2026-040M
CENTER_NAME    = EARTH
REF_FRAME      = TEME
TIME_SYSTEM    = UTC
MEAN_ELEMENT_THEORY = SGP/SGP4

EPOCH          = 2026-03-21T04:00:00.999936
MEAN_MOTION    = 15.75180448
ECCENTRICITY   = .00013943
INCLINATION    = 97.2845
RA_OF_ASC_NODE = 29.1914
ARG_OF_PERICENTER = 110.8379
MEAN_ANOMALY   = 221.8692

EPHEMERIS_TYPE = 0
CLASSIFICATION_TYPE = U
NORAD_CAT_ID   = 68026
ELEMENT_SET_NO = 999
REV_AT_EPOCH   = 427
BSTAR          = .85508053E-4
MEAN_MOTION_DOT = .12638E-3
MEAN_MOTION_DDOT = 0

CCSDS_OMM_VERS = 2.0
CREATION_DATE  = 
ORIGINATOR     = 

OBJECT_NAME    = STARLINK-36940
OBJECT_ID      = 2026-040N
CENTER_NAME    = EARTH
REF_FRAME      = TEME
TIME_SYSTEM    = UTC
MEAN_ELEMENT_THEORY = SGP/SGP4

EPOCH          = 2026-03-21T02:00:01.000224
MEAN_MOTION    = 15.75194833
ECCENTRICITY   = .00010337
INCLINATION    = 97.2856
RA_OF_ASC_NODE = 29.1332
ARG_OF_PERICENTER = 84.5800
MEAN_ANOMALY   = 185.8754

EPHEMERIS_TYPE = 0
CLASSIFICATION_TYPE = U
NORAD_CAT_ID   = 68027
ELEMENT_SET_NO = 999
REV_AT_EPOCH   = 435
BSTAR          = .21013584E-3
MEAN_MOTION_DOT = .31334E-3
MEAN_MOTION_DDOT = 0

CCSDS_OMM_VERS = 2.0
CREATION_DATE  = 
ORIGINATOR     = 

OBJECT_NAME    = STARLINK-36253
OBJECT_ID      = 2026-040P
CENTER_NAME    = EARTH
REF_FRAME      = TEME
TIME_SYSTEM    = UTC
MEAN_ELEMENT_THEORY = SGP/SGP4

EPOCH          = 2026-03-21T02:00:01.000224
MEAN_MOTION    = 15.64611877
ECCENTRICITY   = .00013934
INCLINATION    = 97.2850
RA_OF_ASC_NODE = 28.8518
ARG_OF_PERICENTER = 108.7348
MEAN_ANOMALY   = 236.0295

EPHEMERIS_TYPE = 0
CLASSIFICATION_TYPE = U
NORAD_CAT_ID   = 68028
ELEMENT_SET_NO = 999
REV_AT_EPOCH   = 436
BSTAR          = -.23470966E-1
MEAN_MOTION_DOT = -.1993062E-1
MEAN_MOTION_DDOT = 0

CCSDS_OMM_VERS = 2.0
CREATION_DATE  = 
ORIGINATOR     = 

OBJECT_NAME    = STARLINK-36944
OBJECT_ID      = 2026-040Q
CENTER_NAME    = EARTH
REF_FRAME      = TEME
TIME_SYSTEM    = UTC
MEAN_ELEMENT_THEORY = SGP/SGP4

EPOCH          = 2026-03-21T04:00:00.999936
MEAN_MOTION    = 15.75277791
ECCENTRICITY   = .00011744
INCLINATION    = 97.2841
RA_OF_ASC_NODE = 29.1928
ARG_OF_PERICENTER = 114.7364
MEAN_ANOMALY   = 223.9460

EPHEMERIS_TYPE = 0
CLASSIFICATION_TYPE = U
NORAD_CAT_ID   = 68029
ELEMENT_SET_NO = 999
REV_AT_EPOCH   = 427
BSTAR          = -.11530405E-2
MEAN_MOTION_DOT = -.16939E-2
MEAN_MOTION_DDOT = 0

